[{"OBJECT_NAME":"ION SCV-004","OBJECT_ID":"2022-002K","EPOCH":"2026-03-09T16:32:03.244416","MEAN_MOTION":15.29369331,"ECCENTRICITY":0.00072157,"INCLINATION":97.2961,"RA_OF_ASC_NODE":128.2294,"ARG_OF_PERICENTER":1.6783,"MEAN_ANOMALY":358.448,"EPHEMERIS_TYPE":0,"CLASSIFICATION_TYPE":"U","NORAD_CAT_ID":50993,"ELEMENT_SET_NO":999,"REV_AT_EPOCH":23008,"BSTAR":0.00023198467,"MEAN_MOTION_DOT":6.538e-5,"MEAN_MOTION_DDOT":0},{"OBJECT_NAME":"STARLINK-30860","OBJECT_ID":"2023-171E","EPOCH":"2026-03-09T23:15:38.981952","MEAN_MOTION":15.26739072,"ECCENTRICITY":8.784e-5,"INCLINATION":42.9992,"RA_OF_ASC_NODE":283.106,"ARG_OF_PERICENTER":218.8643,"MEAN_ANOMALY":141.2145,"EPHEMERIS_TYPE":0,"CLASSIFICATION_TYPE":"U","NORAD_CAT_ID":58234,"ELEMENT_SET_NO":999,"REV_AT_EPOCH":12978,"BSTAR":6.833614e-6,"MEAN_MOTION_DOT":-7.6e-7,"MEAN_MOTION_DDOT":0}]
